FENGYUN 1C DEB          
1 30844U 99025AWE 17345.88651396  .00002966  00000-0  64965-3 0  9996
2 30844  98.7687 116.7684 0044031  95.4041  32.6008 14.57898870565297
